ONEWEB-0712             
1 54680U 22166AQ  26032.86141778 -.00000038  00000+0 -13273-3 0  9996
2 54680  87.9015 255.7114 0001068  69.7332 290.3914 13.16595224154258
ONEWEB-0714             
1 54681U 22166AR  26032.67744262  .00000085  00000+0  17528-3 0  9990
2 54681  87.9200 271.0150 0001538  72.8077 287.3225 13.21824911153635
ONEWEB-0532             
1 55140U 23004A   26032.94288792  .00000024  00000+0  27991-4 0  9993
2 55140  87.9103  32.7322 0002250  88.7995 271.3394 13.17647175149778
ONEWEB-0533             
1 55141U 23004B   26032.90772618 -.00000371  00000+0 -10656-2 0  9990
2 55141  87.8948  17.5184 0001828  78.5910 281.5424 13.12442712150310
ONEWEB-0541             
1 55142U 23004C   26032.98441217 -.00000444  00000+0 -12876-2 0  9994
2 55142  87.8822  47.9544 0001917  95.2576 264.8771 13.11415984148228
ONEWEB-0543             
1 55143U 23004D   26032.95190770  .00000021  00000+0  20045-4 0  9995
2 55143  87.9192   2.3331 0001559  80.4132 279.7176 13.18686120151873
ONEWEB-0544             
1 55144U 23004E   26032.94528982 -.00000291  00000+0 -77107-3 0  9996
2 55144  87.9196   2.3278 0001689  90.0136 270.1189 13.18684888151871
ONEWEB-0560             
1 55145U 23004F   26032.93870740  .00000048  00000+0  88878-4 0  9994
2 55145  87.9202   2.3183 0001652  88.3160 271.8161 13.18686825151884
ONEWEB-0565             
1 55146U 23004G   26032.93211249  .00000061  00000+0  12244-3 0  9996
2 55146  87.9193   2.3608 0002008  98.0080 262.1280 13.18687007151878
ONEWEB-0567             
1 55147U 23004H   26032.92551236  .00000037  00000+0  61987-4 0  9991
2 55147  87.9201   2.3331 0001796  96.1925 263.9412 13.18686970151876
ONEWEB-0569             
1 55148U 23004J   26032.86907083  .00000159  00000+0  39973-3 0  9994
2 55148  87.9035 347.1053 0001275 112.1901 247.9364 13.13470679152419
ONEWEB-0570             
1 55149U 23004K   26032.91559994 -.00000240  00000+0 -64049-3 0  9990
2 55149  87.9203   2.3343 0002320  88.5524 271.5874 13.18686054151866
ONEWEB-0571             
1 55150U 23004L   26032.90901514  .00000007  00000+0 -15152-4 0  9992
2 55150  87.9200   2.3339 0002040 118.2156 241.9183 13.18688175151872
ONEWEB-0572             
1 55151U 23004M   26032.97326460  .00000049  00000+0  92592-4 0  9999
2 55151  87.9093  32.7325 0001950  94.6965 265.4390 13.17647997149671
ONEWEB-0573             
1 55152U 23004N   26032.90239938 -.00000027  00000+0 -10078-3 0  9992
2 55152  87.9199   2.3379 0002338 101.0512 259.0883 13.18688262151864
ONEWEB-0588             
1 55153U 23004P   26032.89581096 -.00000023  00000+0 -90028-4 0  9996
2 55153  87.9202   2.3389 0002216  90.3041 269.8345 13.18687488151864
ONEWEB-0598             
1 55154U 23004Q   26032.96238415  .00000284  00000+0  76504-3 0  9998
2 55154  87.8812  47.9822 0001647 111.2745 248.8559 13.11415060148171
