[{"OBJECT_NAME":"ONEWEB-0712","OBJECT_ID":"2022-166AQ","EPOCH":"2026-02-01T20:40:26.496192","MEAN_MOTION":13.16595224,"ECCENTRICITY":0.00010685,"INCLINATION":87.9015,"RA_OF_ASC_NODE":255.7114,"ARG_OF_PERICENTER":69.7332,"MEAN_ANOMALY":290.3914,"EPHEMERIS_TYPE":0,"CLASSIFICATION_TYPE":"U","NORAD_CAT_ID":54680,"ELEMENT_SET_NO":999,"REV_AT_EPOCH":15425,"BSTAR":-0.00013272532,"MEAN_MOTION_DOT":-3.8e-7,"MEAN_MOTION_DDOT":0},{"OBJECT_NAME":"ONEWEB-0714","OBJECT_ID":"2022-166AR","EPOCH":"2026-02-01T16:15:31.042368","MEAN_MOTION":13.21824911,"ECCENTRICITY":0.00015385,"INCLINATION":87.92,"RA_OF_ASC_NODE":271.015,"ARG_OF_PERICENTER":72.8077,"MEAN_ANOMALY":287.3225,"EPHEMERIS_TYPE":0,"CLASSIFICATION_TYPE":"U","NORAD_CAT_ID":54681,"ELEMENT_SET_NO":999,"REV_AT_EPOCH":15363,"BSTAR":0.00017528424,"MEAN_MOTION_DOT":8.5e-7,"MEAN_MOTION_DDOT":0},{"OBJECT_NAME":"ONEWEB-0532","OBJECT_ID":"2023-004A","EPOCH":"2026-02-01T22:37:45.516288","MEAN_MOTION":13.17647175,"ECCENTRICITY":0.00022501,"INCLINATION":87.9103,"RA_OF_ASC_NODE":32.7322,"ARG_OF_PERICENTER":88.7995,"MEAN_ANOMALY":271.3394,"EPHEMERIS_TYPE":0,"CLASSIFICATION_TYPE":"U","NORAD_CAT_ID":55140,"ELEMENT_SET_NO":999,"REV_AT_EPOCH":14977,"BSTAR":2.7990834e-5,"MEAN_MOTION_DOT":2.4e-7,"MEAN_MOTION_DDOT":0},{"OBJECT_NAME":"ONEWEB-0533","OBJECT_ID":"2023-004B","EPOCH":"2026-02-01T21:47:07.541952","MEAN_MOTION":13.12442712,"ECCENTRICITY":0.00018285,"INCLINATION":87.8948,"RA_OF_ASC_NODE":17.5184,"ARG_OF_PERICENTER":78.591,"MEAN_ANOMALY":281.5424,"EPHEMERIS_TYPE":0,"CLASSIFICATION_TYPE":"U","NORAD_CAT_ID":55141,"ELEMENT_SET_NO":999,"REV_AT_EPOCH":15031,"BSTAR":-0.0010656459,"MEAN_MOTION_DOT":-3.71e-6,"MEAN_MOTION_DDOT":0},{"OBJECT_NAME":"ONEWEB-0541","OBJECT_ID":"2023-004C","EPOCH":"2026-02-01T23:37:33.211488","MEAN_MOTION":13.11415984,"ECCENTRICITY":0.00019178,"INCLINATION":87.8822,"RA_OF_ASC_NODE":47.9544,"ARG_OF_PERICENTER":95.2576,"MEAN_ANOMALY":264.8771,"EPHEMERIS_TYPE":0,"CLASSIFICATION_TYPE":"U","NORAD_CAT_ID":55142,"ELEMENT_SET_NO":999,"REV_AT_EPOCH":14822,"BSTAR":-0.0012875858,"MEAN_MOTION_DOT":-4.44e-6,"MEAN_MOTION_DDOT":0},{"OBJECT_NAME":"ONEWEB-0543","OBJECT_ID":"2023-004D","EPOCH":"2026-02-01T22:50:44.825280","MEAN_MOTION":13.1868612,"ECCENTRICITY":0.00015591,"INCLINATION":87.9192,"RA_OF_ASC_NODE":2.3331,"ARG_OF_PERICENTER":80.4132,"MEAN_ANOMALY":279.7176,"EPHEMERIS_TYPE":0,"CLASSIFICATION_TYPE":"U","NORAD_CAT_ID":55143,"ELEMENT_SET_NO":999,"REV_AT_EPOCH":15187,"BSTAR":2.0044836e-5,"MEAN_MOTION_DOT":2.1e-7,"MEAN_MOTION_DDOT":0},{"OBJECT_NAME":"ONEWEB-0544","OBJECT_ID":"2023-004E","EPOCH":"2026-02-01T22:41:13.040448","MEAN_MOTION":13.18684888,"ECCENTRICITY":0.00016891,"INCLINATION":87.9196,"RA_OF_ASC_NODE":2.3278,"ARG_OF_PERICENTER":90.0136,"MEAN_ANOMALY":270.1189,"EPHEMERIS_TYPE":0,"CLASSIFICATION_TYPE":"U","NORAD_CAT_ID":55144,"ELEMENT_SET_NO":999,"REV_AT_EPOCH":15187,"BSTAR":-0.00077106856,"MEAN_MOTION_DOT":-2.91e-6,"MEAN_MOTION_DDOT":0},{"OBJECT_NAME":"ONEWEB-0560","OBJECT_ID":"2023-004F","EPOCH":"2026-02-01T22:31:44.319360","MEAN_MOTION":13.18686825,"ECCENTRICITY":0.00016526,"INCLINATION":87.9202,"RA_OF_ASC_NODE":2.3183,"ARG_OF_PERICENTER":88.316,"MEAN_ANOMALY":271.8161,"EPHEMERIS_TYPE":0,"CLASSIFICATION_TYPE":"U","NORAD_CAT_ID":55145,"ELEMENT_SET_NO":999,"REV_AT_EPOCH":15188,"BSTAR":8.887844e-5,"MEAN_MOTION_DOT":4.8e-7,"MEAN_MOTION_DDOT":0},{"OBJECT_NAME":"ONEWEB-0565","OBJECT_ID":"2023-004G","EPOCH":"2026-02-01T22:22:14.519136","MEAN_MOTION":13.18687007,"ECCENTRICITY":0.00020083,"INCLINATION":87.9193,"RA_OF_ASC_NODE":2.3608,"ARG_OF_PERICENTER":98.008,"MEAN_ANOMALY":262.128,"EPHEMERIS_TYPE":0,"CLASSIFICATION_TYPE":"U","NORAD_CAT_ID":55146,"ELEMENT_SET_NO":999,"REV_AT_EPOCH":15187,"BSTAR":0.00012243663,"MEAN_MOTION_DOT":6.1e-7,"MEAN_MOTION_DDOT":0},{"OBJECT_NAME":"ONEWEB-0567","OBJECT_ID":"2023-004H","EPOCH":"2026-02-01T22:12:44.267904","MEAN_MOTION":13.1868697,"ECCENTRICITY":0.00017962,"INCLINATION":87.9201,"RA_OF_ASC_NODE":2.3331,"ARG_OF_PERICENTER":96.1925,"MEAN_ANOMALY":263.9412,"EPHEMERIS_TYPE":0,"CLASSIFICATION_TYPE":"U","NORAD_CAT_ID":55147,"ELEMENT_SET_NO":999,"REV_AT_EPOCH":15187,"BSTAR":6.1987144e-5,"MEAN_MOTION_DOT":3.7e-7,"MEAN_MOTION_DDOT":0},{"OBJECT_NAME":"ONEWEB-0569","OBJECT_ID":"2023-004J","EPOCH":"2026-02-01T20:51:27.719712","MEAN_MOTION":13.13470679,"ECCENTRICITY":0.00012755,"INCLINATION":87.9035,"RA_OF_ASC_NODE":347.1053,"ARG_OF_PERICENTER":112.1901,"MEAN_ANOMALY":247.9364,"EPHEMERIS_TYPE":0,"CLASSIFICATION_TYPE":"U","NORAD_CAT_ID":55148,"ELEMENT_SET_NO":999,"REV_AT_EPOCH":15241,"BSTAR":0.00039973009,"MEAN_MOTION_DOT":1.59e-6,"MEAN_MOTION_DDOT":0},{"OBJECT_NAME":"ONEWEB-0570","OBJECT_ID":"2023-004K","EPOCH":"2026-02-01T21:58:27.834816","MEAN_MOTION":13.18686054,"ECCENTRICITY":0.000232,"INCLINATION":87.9203,"RA_OF_ASC_NODE":2.3343,"ARG_OF_PERICENTER":88.5524,"MEAN_ANOMALY":271.5874,"EPHEMERIS_TYPE":0,"CLASSIFICATION_TYPE":"U","NORAD_CAT_ID":55149,"ELEMENT_SET_NO":999,"REV_AT_EPOCH":15186,"BSTAR":-0.00064049104,"MEAN_MOTION_DOT":-2.4e-6,"MEAN_MOTION_DDOT":0},{"OBJECT_NAME":"ONEWEB-0571","OBJECT_ID":"2023-004L","EPOCH":"2026-02-01T21:48:58.908096","MEAN_MOTION":13.18688175,"ECCENTRICITY":0.00020403,"INCLINATION":87.92,"RA_OF_ASC_NODE":2.3339,"ARG_OF_PERICENTER":118.2156,"MEAN_ANOMALY":241.9183,"EPHEMERIS_TYPE":0,"CLASSIFICATION_TYPE":"U","NORAD_CAT_ID":55150,"ELEMENT_SET_NO":999,"REV_AT_EPOCH":15187,"BSTAR":-1.5152029e-5,"MEAN_MOTION_DOT":7.0e-8,"MEAN_MOTION_DDOT":0},{"OBJECT_NAME":"ONEWEB-0572","OBJECT_ID":"2023-004M","EPOCH":"2026-02-01T23:21:30.061440","MEAN_MOTION":13.17647997,"ECCENTRICITY":0.00019504,"INCLINATION":87.9093,"RA_OF_ASC_NODE":32.7325,"ARG_OF_PERICENTER":94.6965,"MEAN_ANOMALY":265.439,"EPHEMERIS_TYPE":0,"CLASSIFICATION_TYPE":"U","NORAD_CAT_ID":55151,"ELEMENT_SET_NO":999,"REV_AT_EPOCH":14967,"BSTAR":9.2592344e-5,"MEAN_MOTION_DOT":4.9e-7,"MEAN_MOTION_DDOT":0},{"OBJECT_NAME":"ONEWEB-0573","OBJECT_ID":"2023-004N","EPOCH":"2026-02-01T21:39:27.306432","MEAN_MOTION":13.18688262,"ECCENTRICITY":0.00023386,"INCLINATION":87.9199,"RA_OF_ASC_NODE":2.3379,"ARG_OF_PERICENTER":101.0512,"MEAN_ANOMALY":259.0883,"EPHEMERIS_TYPE":0,"CLASSIFICATION_TYPE":"U","NORAD_CAT_ID":55152,"ELEMENT_SET_NO":999,"REV_AT_EPOCH":15186,"BSTAR":-0.00010077758,"MEAN_MOTION_DOT":-2.7e-7,"MEAN_MOTION_DDOT":0},{"OBJECT_NAME":"ONEWEB-0588","OBJECT_ID":"2023-004P","EPOCH":"2026-02-01T21:29:58.066944","MEAN_MOTION":13.18687488,"ECCENTRICITY":0.00022165,"INCLINATION":87.9202,"RA_OF_ASC_NODE":2.3389,"ARG_OF_PERICENTER":90.3041,"MEAN_ANOMALY":269.8345,"EPHEMERIS_TYPE":0,"CLASSIFICATION_TYPE":"U","NORAD_CAT_ID":55153,"ELEMENT_SET_NO":999,"REV_AT_EPOCH":15186,"BSTAR":-9.0027945e-5,"MEAN_MOTION_DOT":-2.3e-7,"MEAN_MOTION_DDOT":0},{"OBJECT_NAME":"ONEWEB-0598","OBJECT_ID":"2023-004Q","EPOCH":"2026-02-01T23:05:49.990560","MEAN_MOTION":13.1141506,"ECCENTRICITY":0.00016475,"INCLINATION":87.8812,"RA_OF_ASC_NODE":47.9822,"ARG_OF_PERICENTER":111.2745,"MEAN_ANOMALY":248.8559,"EPHEMERIS_TYPE":0,"CLASSIFICATION_TYPE":"U","NORAD_CAT_ID":55154,"ELEMENT_SET_NO":999,"REV_AT_EPOCH":14817,"BSTAR":0.00076504224,"MEAN_MOTION_DOT":2.84e-6,"MEAN_MOTION_DDOT":0}]
